start=new Date('2022-08-01T00:00:00.000Z').valueOf();
sats=[{"REF_FRAME":"TEME","MEAN_ELEMENT_THEORY":"SGP4","ARG_OF_PERICENTER":"68.1217","DECAY_DATE":null,"CENTER_NAME":"EARTH","INCLINATION":"53.0543","OBJECT_TYPE":"PAYLOAD","ECCENTRICITY":"0.00019750","TLE_LINE2":"2 48384  53.0543 143.3859 0001975  68.1217 291.9982 15.06395628 69908","SEMIMAJOR_AXIS":"6925.362","GP_ID":"209295659","EPOCH":"2022-07-31T19:08:34.775808","CLASSIFICATION_TYPE":"U","OBJECT_ID":"2021-038AH","ELEMENT_SET_NO":"999","PERIAPSIS":"545.859","RCS_SIZE":"LARGE","COUNTRY_CODE":"US","FILE":"3526413","TLE_LINE1":"1 48384U 21038AH  22212.79762472  .00001601  00000-0  12639-3 0  9996","REV_AT_EPOCH":"6990","PERIOD":"95.592","TIME_SYSTEM":"UTC","NORAD_CAT_ID":"48384","SITE":"AFETR","APOAPSIS":"548.595","MEAN_MOTION_DDOT":"0.0000000000000","MEAN_MOTION":"15.06395628","MEAN_MOTION_DOT":"0.00001601","MEAN_ANOMALY":"291.9982","OBJECT_NAME":"STARLINK-2601","LAUNCH_DATE":"2021-05-04","BSTAR":"0.00012639000000","RA_OF_ASC_NODE":"143.3859","EPHEMERIS_TYPE":"0"},{"NORAD_CAT_ID":"48385","SITE":"AFETR","APOAPSIS":"548.447","PERIOD":"95.593","TIME_SYSTEM":"UTC","REV_AT_EPOCH":"6986","TLE_LINE1":"1 48385U 21038AJ  22212.52855600  .00000025  00000-0  20584-4 0  9992","COUNTRY_CODE":"US","RCS_SIZE":"LARGE","FILE":"3526169","PERIAPSIS":"546.052","ELEMENT_SET_NO":"999","EPHEMERIS_TYPE":"0","RA_OF_ASC_NODE":"144.5917","MEAN_ANOMALY":"295.3916","OBJECT_NAME":"STARLINK-2598","LAUNCH_DATE":"2021-05-04","BSTAR":"0.00002058400000","MEAN_MOTION_DOT":"0.00000025","MEAN_MOTION":"15.06388200","MEAN_MOTION_DDOT":"0.0000000000000","OBJECT_TYPE":"PAYLOAD","CENTER_NAME":"EARTH","INCLINATION":"53.0559","DECAY_DATE":null,"ARG_OF_PERICENTER":"64.7252","REF_FRAME":"TEME","MEAN_ELEMENT_THEORY":"SGP4","OBJECT_ID":"2021-038AJ","EPOCH":"2022-07-31T12:41:07.238400","GP_ID":"209264345","CLASSIFICATION_TYPE":"U","SEMIMAJOR_AXIS":"6925.385","TLE_LINE2":"2 48385  53.0559 144.5917 0001729  64.7252 295.3916 15.06388200 69860","ECCENTRICITY":"0.00017290"},{"MEAN_MOTION":"15.06395807","MEAN_MOTION_DDOT":"0.0000000000000","EPHEMERIS_TYPE":"0","RA_OF_ASC_NODE":"138.4644","MEAN_ANOMALY":"294.0105","OBJECT_NAME":"STARLINK-2606","LAUNCH_DATE":"2021-05-04","BSTAR":"0.00001491600000","MEAN_MOTION_DOT":"-0.00000059","TLE_LINE1":"1 48386U 21038AK  22212.78150437 -.00000059  00000-0  14916-4 0  9997","COUNTRY_CODE":"US","RCS_SIZE":"LARGE","FILE":"3526413","PERIAPSIS":"546.038","ELEMENT_SET_NO":"999","NORAD_CAT_ID":"48386","SITE":"AFETR","APOAPSIS":"548.415","PERIOD":"95.592","TIME_SYSTEM":"UTC","REV_AT_EPOCH":"6874","SEMIMAJOR_AXIS":"6925.361","TLE_LINE2":"2 48386  53.0551 138.4644 0001716  66.1064 294.0105 15.06395807 68748","ECCENTRICITY":"0.00017160","OBJECT_ID":"2021-038AK","GP_ID":"209294659","CLASSIFICATION_TYPE":"U","EPOCH":"2022-07-31T18:45:21.977568","CENTER_NAME":"EARTH","INCLINATION":"53.0551","DECAY_DATE":null,"ARG_OF_PERICENTER":"66.1064","REF_FRAME":"TEME","MEAN_ELEMENT_THEORY":"SGP4","OBJECT_TYPE":"PAYLOAD"},{"PERIAPSIS":"545.766","ELEMENT_SET_NO":"999","TLE_LINE1":"1 48387U 21038AL  22212.81098676  .00000824  00000-0  74184-4 0  9990","FILE":"3526413","RCS_SIZE":"MEDIUM","COUNTRY_CODE":"US","REV_AT_EPOCH":"6875","APOAPSIS":"548.638","SITE":"AFETR","NORAD_CAT_ID":"48387","TIME_SYSTEM":"UTC","PERIOD":"95.592","MEAN_MOTION":"15.06403783","MEAN_MOTION_DDOT":"0.0000000000000","MEAN_MOTION_DOT":"0.00000824","RA_OF_ASC_NODE":"138.2935","EPHEMERIS_TYPE":"0","LAUNCH_DATE":"2021-05-04","BSTAR":"0.00007418400000","MEAN_ANOMALY":"293.9246","OBJECT_NAME":"STARLINK-2600","ARG_OF_PERICENTER":"66.1960","MEAN_ELEMENT_THEORY":"SGP4","REF_FRAME":"TEME","INCLINATION":"53.0550","CENTER_NAME":"EARTH","DECAY_DATE":null,"OBJECT_TYPE":"PAYLOAD","TLE_LINE2":"2 48387  53.0550 138.2935 0002073  66.1960 293.9246 15.06403783 68759","SEMIMAJOR_AXIS":"6925.337","ECCENTRICITY":"0.00020730","CLASSIFICATION_TYPE":"U","GP_ID":"209294909","EPOCH":"2022-07-31T19:27:49.256064","OBJECT_ID":"2021-038AL"},{"MEAN_MOTION_DOT":"0.00002789","MEAN_ANOMALY":"288.9986","OBJECT_NAME":"STARLINK-2594","LAUNCH_DATE":"2021-05-04","BSTAR":"0.00020608000000","RA_OF_ASC_NODE":"138.3406","EPHEMERIS_TYPE":"0","MEAN_MOTION_DDOT":"0.0000000000000","MEAN_MOTION":"15.06399962","REV_AT_EPOCH":"6875","PERIOD":"95.592","TIME_SYSTEM":"UTC","NORAD_CAT_ID":"48388","SITE":"AFETR","APOAPSIS":"548.355","ELEMENT_SET_NO":"999","PERIAPSIS":"546.072","COUNTRY_CODE":"US","RCS_SIZE":"LARGE","FILE":"3526413","TLE_LINE1":"1 48388U 21038AM  22212.80730338  .00002789  00000-0  20608-3 0  9991","GP_ID":"209296159","EPOCH":"2022-07-31T19:22:31.012032","CLASSIFICATION_TYPE":"U","OBJECT_ID":"2021-038AM","ECCENTRICITY":"0.00016480","SEMIMAJOR_AXIS":"6925.349","TLE_LINE2":"2 48388  53.0535 138.3406 0001648  71.1182 288.9986 15.06399962 68754","OBJECT_TYPE":"PAYLOAD","REF_FRAME":"TEME","MEAN_ELEMENT_THEORY":"SGP4","ARG_OF_PERICENTER":"71.1182","DECAY_DATE":null,"CENTER_NAME":"EARTH","INCLINATION":"53.0535"},{"SEMIMAJOR_AXIS":"6925.364","TLE_LINE2":"2 48389  53.0551 136.0730 0001758  71.3178 288.8002 15.06395114 68727","ECCENTRICITY":"0.00017580","GP_ID":"209263846","CLASSIFICATION_TYPE":"U","EPOCH":"2022-07-31T04:43:22.872000","OBJECT_ID":"2021-038AN","ARG_OF_PERICENTER":"71.3178","MEAN_ELEMENT_THEORY":"SGP4","REF_FRAME":"TEME","INCLINATION":"53.0551","CENTER_NAME":"EARTH","DECAY_DATE":null,"OBJECT_TYPE":"PAYLOAD","MEAN_MOTION":"15.06395114","MEAN_MOTION_DDOT":"0.0000000000000","MEAN_MOTION_DOT":"0.00000656","RA_OF_ASC_NODE":"136.0730","EPHEMERIS_TYPE":"0","LAUNCH_DATE":"2021-05-04","BSTAR":"0.00006295400000","MEAN_ANOMALY":"288.8002","OBJECT_NAME":"STARLINK-1904","PERIAPSIS":"546.011","ELEMENT_SET_NO":"999","TLE_LINE1":"1 48389U 21038AN  22212.19679250  .00000656  00000-0  62954-4 0  9991","FILE":"3526169","COUNTRY_CODE":"US","RCS_SIZE":"LARGE","REV_AT_EPOCH":"6872","SITE":"AFETR","APOAPSIS":"548.446","NORAD_CAT_ID":"48389","TIME_SYSTEM":"UTC","PERIOD":"95.592"},{"PERIOD":"95.592","TIME_SYSTEM":"UTC","NORAD_CAT_ID":"48390","SITE":"AFETR","APOAPSIS":"548.418","REV_AT_EPOCH":"6999","RCS_SIZE":"LARGE","COUNTRY_CODE":"US","FILE":"3526169","TLE_LINE1":"1 48390U 21038AP  22212.52578172  .00000760  00000-0  69904-4 0  9999","ELEMENT_SET_NO":"999","PERIAPSIS":"545.999","MEAN_ANOMALY":"290.5402","OBJECT_NAME":"STARLINK-2586","BSTAR":"0.00006990400000","LAUNCH_DATE":"2021-05-04","EPHEMERIS_TYPE":"0","RA_OF_ASC_NODE":"134.6034","MEAN_MOTION_DOT":"0.00000760","MEAN_MOTION_DDOT":"0.0000000000000","MEAN_MOTION":"15.06401673","OBJECT_TYPE":"PAYLOAD","DECAY_DATE":null,"CENTER_NAME":"EARTH","INCLINATION":"53.0549","REF_FRAME":"TEME","MEAN_ELEMENT_THEORY":"SGP4","ARG_OF_PERICENTER":"69.5774","OBJECT_ID":"2021-038AP","CLASSIFICATION_TYPE":"U","GP_ID":"209264096","EPOCH":"2022-07-31T12:37:07.540608","ECCENTRICITY":"0.00017460","TLE_LINE2":"2 48390  53.0549 134.6034 0001746  69.5774 290.5402 15.06401673 69997","SEMIMAJOR_AXIS":"6925.343"},{"OBJECT_TYPE":"PAYLOAD","MEAN_ELEMENT_THEORY":"SGP4","REF_FRAME":"TEME","ARG_OF_PERICENTER":"62.1152","DECAY_DATE":null,"INCLINATION":"53.0546","CENTER_NAME":"EARTH","GP_ID":"209295409","EPOCH":"2022-07-31T17:18:26.805312","CLASSIFICATION_TYPE":"U","OBJECT_ID":"2021-038AQ","ECCENTRICITY":"0.00020420","TLE_LINE2":"2 48391  53.0546 133.7340 0002042  62.1152 298.0044 15.06397133 70020","SEMIMAJOR_AXIS":"6925.357","REV_AT_EPOCH":"7002","TIME_SYSTEM":"UTC","PERIOD":"95.592","SITE":"AFETR","APOAPSIS":"548.637","NORAD_CAT_ID":"48391","ELEMENT_SET_NO":"999","PERIAPSIS":"545.808","FILE":"3526413","COUNTRY_CODE":"US","RCS_SIZE":"LARGE","TLE_LINE1":"1 48391U 21038AQ  22212.72114358 -.00000312  00000-0 -20188-5 0  9991","MEAN_MOTION_DOT":"-0.00000312","LAUNCH_DATE":"2021-05-04","BSTAR":"-0.00000201880000","MEAN_ANOMALY":"298.0044","OBJECT_NAME":"STARLINK-2607","EPHEMERIS_TYPE":"0","RA_OF_ASC_NODE":"133.7340","MEAN_MOTION_DDOT":"0.0000000000000","MEAN_MOTION":"15.06397133"},{"SEMIMAJOR_AXIS":"6925.375","TLE_LINE2":"2 48392  53.0555 133.4522 0001724  73.3830 286.7349 15.06391274 70036","ECCENTRICITY":"0.00017240","OBJECT_ID":"2021-038AR","GP_ID":"209295660","EPOCH":"2022-07-31T18:48:40.908384","CLASSIFICATION_TYPE":"U","CENTER_NAME":"EARTH","INCLINATION":"53.0555","DECAY_DATE":null,"ARG_OF_PERICENTER":"73.3830","REF_FRAME":"TEME","MEAN_ELEMENT_THEORY":"SGP4","OBJECT_TYPE":"PAYLOAD","MEAN_MOTION":"15.06391274","MEAN_MOTION_DDOT":"0.0000000000000","RA_OF_ASC_NODE":"133.4522","EPHEMERIS_TYPE":"0","OBJECT_NAME":"STARLINK-2605","MEAN_ANOMALY":"286.7349","LAUNCH_DATE":"2021-05-04","BSTAR":"0.00003986700000","MEAN_MOTION_DOT":"0.00000312","TLE_LINE1":"1 48392U 21038AR  22212.78380681  .00000312  00000-0  39867-4 0  9993","RCS_SIZE":"LARGE","COUNTRY_CODE":"US","FILE":"3526413","PERIAPSIS":"546.046","ELEMENT_SET_NO":"999","NORAD_CAT_ID":"48392","SITE":"AFETR","APOAPSIS":"548.434","PERIOD":"95.593","TIME_SYSTEM":"UTC","REV_AT_EPOCH":"7003"},{"GP_ID":"209264346","CLASSIFICATION_TYPE":"U","EPOCH":"2022-07-31T12:21:12.109536","OBJECT_ID":"2021-038AS","ECCENTRICITY":"0.00018070","TLE_LINE2":"2 48393  53.0537 134.6547 0001807  65.9755 294.1423 15.06398966 69996","SEMIMAJOR_AXIS":"6925.352","OBJECT_TYPE":"PAYLOAD","MEAN_ELEMENT_THEORY":"SGP4","REF_FRAME":"TEME","ARG_OF_PERICENTER":"65.9755","DECAY_DATE":null,"INCLINATION":"53.0537","CENTER_NAME":"EARTH","MEAN_MOTION_DOT":"0.00001765","BSTAR":"0.00013740000000","LAUNCH_DATE":"2021-05-04","OBJECT_NAME":"STARLINK-2602","MEAN_ANOMALY":"294.1423","EPHEMERIS_TYPE":"0","RA_OF_ASC_NODE":"134.6547","MEAN_MOTION_DDOT":"0.0000000000000","MEAN_MOTION":"15.06398966","REV_AT_EPOCH":"6999","TIME_SYSTEM":"UTC","PERIOD":"95.592","APOAPSIS":"548.468","SITE":"AFETR","NORAD_CAT_ID":"48393","ELEMENT_SET_NO":"999","PERIAPSIS":"545.965","FILE":"3526169","COUNTRY_CODE":"US","RCS_SIZE":"LARGE","TLE_LINE1":"1 48393U 21038AS  22212.51472349  .00001765  00000-0  13740-3 0  9992"}];
